NORAD_CAT_ID,OBJECT_NAME,OBJECT_TYPE,EPOCH,MEAN_MOTION,ECCENTRICITY,INCLINATION,RA_OF_ASC_NODE,ARG_OF_PERICENTER,MEAN_ANOMALY,BSTAR,MEAN_MOTION_DOT,MEAN_MOTION_DDOT,TLE_LINE0,TLE_LINE1,TLE_LINE2,SEMIMAJOR_AXIS,PERIOD,APOGEE,PERIGEE,DECAYED
52305.0,STARLINK-3724,PAYLOAD,2023-01-06 20:16:21,15.08832811,0.0001949,53.2137,256.8967,46.7768,313.3387,-0.00010648,-1.982e-05,0.0,0 STARLINK-3724,1 52305U 22041AW  23006.84469684 -.00001982  00000-0 -10648-3 0  9998,2 52305  53.2137 256.8967 0001949  46.7768 313.3387 15.08832811 39717,6917.901999999999,95.438,541.116,538.419,0.0
52305.0,STARLINK-3724,PAYLOAD,2023-01-06 23:27:07,15.08838457,0.0001902,53.2132,256.3025,44.9527,315.1619,0.00014584,2.034e-05,0.0,0 STARLINK-3724,1 52305U 22041AW  23006.97717585  .00002034  00000-0  14584-3 0  9998,2 52305  53.2132 256.3025 0001902  44.9527 315.1619 15.08838457 40952,6917.885,95.438,541.066,538.434,0.0
52305.0,STARLINK-3724,PAYLOAD,2023-01-07 18:31:46,15.08823573,0.0001853,53.214,252.7341,43.0431,317.0706,0.00013981,1.937e-05,0.0,0 STARLINK-3724,1 52305U 22041AW  23007.77206361  .00001937  00000-0  13981-3 0  9993,2 52305  53.2140 252.7341 0001853  43.0431 317.0706 15.08823573 41076,6917.931,95.439,541.077,538.514,0.0
52305.0,STARLINK-3724,PAYLOAD,2023-01-08 08:50:14,15.08831283,0.0001974,53.2133,250.0571,48.8175,311.2987,0.00019413,2.802e-05,0.0,0 STARLINK-3724,1 52305U 22041AW  23008.36822875  .00002802  00000-0  19413-3 0  9991,2 52305  53.2133 250.0571 0001974  48.8175 311.2987 15.08831283 39943,6917.906999999998,95.438,541.138,538.406,0.0
52305.0,STARLINK-3724,PAYLOAD,2023-01-08 18:22:33,15.08842236,0.0001972,53.213,248.2735,50.1581,309.9585,0.00056255,8.677e-05,0.0,0 STARLINK-3724,1 52305U 22041AW  23008.76566881  .00008677  00000-0  56255-3 0  9998,2 52305  53.2130 248.2735 0001972  50.1581 309.9585 15.08842236 41228,6917.874,95.437,541.1030000000002,538.374,0.0
52305.0,STARLINK-3724,PAYLOAD,2023-01-09 00:44:06,15.08842466,0.0002013,53.2129,247.0841,50.1304,309.9865,0.0005713,8.817e-05,0.0,0 STARLINK-3724,1 52305U 22041AW  23009.03063013  .00008817  00000-0  57130-3 0  9997,2 52305  53.2129 247.0841 0002013  50.1304 309.9865 15.08842466 40046,6917.873000000001,95.437,541.13,538.345,0.0
52305.0,STARLINK-3724,PAYLOAD,2023-01-10 00:34:54,15.08833298,0.000257,53.2116,242.6221,56.94600000000001,303.1778,5.710600000000001e-05,6.2e-06,0.0,0 STARLINK-3724,1 52305U 22041AW  23010.02423706  .00000620  00000-0  57106-4 0  9995,2 52305  53.2116 242.6221 0002570  56.9460 303.1778 15.08833298 41414,6917.901,95.438,541.544,537.988,0.0
52305.0,STARLINK-3724,PAYLOAD,2023-01-10 08:31:49,15.08848859,0.0002056,53.2125,241.1367,53.4909,306.6272,0.00038101,5.782e-05,0.0,0 STARLINK-3724,1 52305U 22041AW  23010.35543192  .00005782  00000-0  38101-3 0  9990,2 52305  53.2125 241.1367 0002056  53.4909 306.6272 15.08848859 41469,6917.853,95.437,541.141,538.2959999999998,0.0
52305.0,STARLINK-3724,PAYLOAD,2023-01-11 00:25:40,15.08848585,0.0002171,53.2104,238.1606,61.1919,298.9291,0.00031078,4.663e-05,0.0,0 STARLINK-3724,1 52305U 22041AW  23011.01783218  .00004663  00000-0  31078-3 0  9992,2 52305  53.2104 238.1606 0002171  61.1919 298.9291 15.08848585 41564,6917.854,95.437,541.221,538.217,0.0
52305.0,STARLINK-3724,PAYLOAD,2023-01-11 08:22:36,15.08840936,0.000199,53.2126,236.676,54.1792,305.9384,0.00012441,1.692e-05,0.0,0 STARLINK-3724,1 52305U 22041AW  23011.34903366  .00001692  00000-0  12441-3 0  9998,2 52305  53.2126 236.6760 0001990  54.1792 305.9384 15.08840936 41611,6917.8780000000015,95.437,541.119,538.366,0.0
52305.0,STARLINK-3724,PAYLOAD,2023-01-11 21:05:41,15.08841689,0.0002408,53.2097,234.2974,58.5696,301.5531,5.6214e-05,6.06e-06,0.0,0 STARLINK-3724,1 52305U 22041AW  23011.87895499  .00000606  00000-0  56214-4 0  9994,2 52305  53.2097 234.2974 0002408  58.5696 301.5531 15.08841689 40470,6917.875,95.437,541.406,538.0740000000002,0.0
52305.0,STARLINK-3724,PAYLOAD,2023-01-12 16:10:19,15.08834161,0.0002205,53.2128,230.729,57.224,302.8964,-2.1553e-05,-6.31e-06,0.0,0 STARLINK-3724,1 52305U 22041AW  23012.67384213 -.00000631  00000-0 -21553-4 0  9998,2 52305  53.2128 230.7290 0002205  57.2240 302.8964 15.08834161 41813,6917.898,95.438,541.289,538.238,0.0
52305.0,STARLINK-3724,PAYLOAD,2023-01-12 20:56:28,15.08839161,0.0001855,53.213,229.835,60.1326,299.985,2.0784e-05,4.3e-07,0.0,0 STARLINK-3724,1 52305U 22041AW  23012.87255740  .00000043  00000-0  20784-4 0  9992,2 52305  53.2130 229.8350 0001855  60.1326 299.9850 15.08839161 40623,6917.883000000002,95.438,541.031,538.465,0.0
52305.0,STARLINK-3724,PAYLOAD,2023-01-13 09:39:34,15.08837186,0.0001896999999999,53.2128,227.4557,64.8588,295.2601,7.99e-05,9.84e-06,0.0,0 STARLINK-3724,1 52305U 22041AW  23013.40247824  .00000984  00000-0  79900-4 0  9994,2 52305  53.2128 227.4557 0001897  64.8588 295.2601 15.08837186 40707,6917.889,95.438,541.066,538.442,0.0
52305.0,STARLINK-3724,PAYLOAD,2023-01-13 20:47:15,15.08840038,0.0001868,53.2131,225.3745,64.0142,296.1043,0.00011927,1.611e-05,0.0,0 STARLINK-3724,1 52305U 22041AW  23013.86615691  .00001611  00000-0  11927-3 0  9997,2 52305  53.2131 225.3745 0001868  64.0142 296.1043 15.08840038 40770,6917.88,95.438,541.038,538.453,0.0
52305.0,STARLINK-3724,PAYLOAD,2023-01-14 14:16:30,15.08834242,0.0001844999999999,53.2133,222.1038,63.3616,296.7565,8.8806e-05,1.125e-05,0.0,0 STARLINK-3724,1 52305U 22041AW  23014.59480292  .00001125  00000-0  88806-4 0  9996,2 52305  53.2133 222.1038 0001845  63.3616 296.7565 15.08834242 42109,6917.898,95.438,541.039,538.487,0.0
52305.0,STARLINK-3724,PAYLOAD,2023-01-15 12:31:55,15.08835864,0.0001875999999999,53.2131,217.9405,65.6011,294.5177,4.9616e-05,5.01e-06,0.0,0 STARLINK-3724,1 52305U 22041AW  23015.52216509  .00000501  00000-0  49616-4 0  9991,2 52305  53.2131 217.9405 0001876  65.6011 294.5177 15.08835864 41021,6917.893,95.438,541.056,538.46,0.0
52305.0,STARLINK-3724,PAYLOAD,2023-01-15 20:28:50,15.08838701,0.0001753,53.2132,216.4539,67.4795,292.6382,6.2771e-05,7.11e-06,0.0,0 STARLINK-3724,1 52305U 22041AW  23015.85336298  .00000711  00000-0  62771-4 0  9995,2 52305  53.2132 216.4539 0001753  67.4795 292.6382 15.08838701 42297,6917.884,95.438,540.962,538.5369999999999,0.0
52305.0,STARLINK-3724,PAYLOAD,2023-01-16 13:58:05,15.0883876,0.0001682,53.213,213.1829,70.7574,289.36,4.0661e-05,3.59e-06,0.0,0 STARLINK-3724,1 52305U 22041AW  23016.58200488  .00000359  00000-0  40661-4 0  9999,2 52305  53.2130 213.1829 0001682  70.7574 289.3600 15.08838760 41182,6917.884,95.438,540.913,538.586,0.0
52305.0,STARLINK-3724,PAYLOAD,2023-01-16 21:55:00,15.0883922,0.0001733,53.2133,211.6957,69.4837,290.6341,5.3673e-05,5.66e-06,0.0,0 STARLINK-3724,1 52305U 22041AW  23016.91320534  .00000566  00000-0  53673-4 0  9998,2 52305  53.2133 211.6957 0001733  69.4837 290.6341 15.08839220 42454,6917.883000000001,95.438,540.947,538.549,0.0
52305.0,STARLINK-3724,PAYLOAD,2023-01-17 13:48:52,15.08834787,0.000164,53.2134,208.7215,76.9791,283.1384,6.5625e-05,7.56e-06,0.0,0 STARLINK-3724,1 52305U 22041AW  23017.57560894  .00000756  00000-0  65625-4 0  9997,2 52305  53.2134 208.7215 0001640  76.9791 283.1384 15.08834787 41331,6917.896,95.438,540.896,538.627,0.0
52305.0,STARLINK-3724,PAYLOAD,2023-01-18 05:42:43,15.08841891,0.0001758,53.2145,205.7479,76.721,283.3978,8.8735e-05,1.124e-05,0.0,0 STARLINK-3724,1 52305U 22041AW  23018.23800515  .00001124  00000-0  88735-4 0  9995,2 52305  53.2145 205.7479 0001758  76.7210 283.3978 15.08841891 42657,6917.875,95.437,540.956,538.523,0.0
52305.0,STARLINK-3724,PAYLOAD,2023-01-18 12:04:16,15.08840152,0.0001751,53.2141,204.5579,77.7893,282.3295,0.00011067,1.474e-05,0.0,0 STARLINK-3724,1 52305U 22041AW  23018.50296570  .00001474  00000-0  11067-3 0  9996,2 52305  53.2141 204.5579 0001751  77.7893 282.3295 15.08840152 41471,6917.88,95.438,540.956,538.534,0.0
52305.0,STARLINK-3724,PAYLOAD,2023-01-18 15:15:02,15.08840559,0.0001720999999999,53.2136,203.9629,78.1898,281.9287,0.0001127,1.506e-05,0.0,0 STARLINK-3724,1 52305U 22041AW  23018.63544530  .00001506  00000-0  11270-3 0  9994,2 52305  53.2136 203.9629 0001721  78.1898 281.9287 15.08840559 41490,6917.879,95.438,540.934,538.553,0.0
52305.0,STARLINK-3724,PAYLOAD,2023-01-19 11:55:03,15.08836625,0.0001657,53.2135,200.0972,80.0093,280.1086,6.2677e-05,7.1e-06,0.0,0 STARLINK-3724,1 52305U 22041AW  23019.49656855  .00000710  00000-0  62677-4 0  9997,2 52305  53.2135 200.0972 0001657  80.0093 280.1086 15.08836625 42842,6917.891,95.438,540.9019999999999,538.609,0.0
52305.0,STARLINK-3724,PAYLOAD,2023-01-20 05:24:17,15.08843484,0.000158,53.2135,196.827,77.9536,282.1633,7.1207e-05,8.46e-06,0.0,0 STARLINK-3724,1 52305U 22041AW  23020.22520287  .00000846  00000-0  71207-4 0  9998,2 52305  53.2135 196.8270 0001580  77.9536 282.1633 15.08843484 42950,6917.87,95.437,540.828,538.6419999999999,0.0
52305.0,STARLINK-3724,PAYLOAD,2023-01-21 11:36:37,15.08833686,0.0001636,53.2141,191.1751,85.9319,274.186,8.999899999999999e-05,1.144e-05,0.0,0 STARLINK-3724,1 52305U 22041AW  23021.48376708  .00001144  00000-0  89999-4 0  9993,2 52305  53.2141 191.1751 0001636  85.9319 274.1860 15.08833686 43147,6917.9,95.438,540.896,538.633,0.0
52305.0,STARLINK-3724,PAYLOAD,2023-01-22 19:24:20,15.088395000000002,0.0001503,53.2138,185.2285,88.3214,271.795,2.9363000000000003e-05,1.79e-06,0.0,0 STARLINK-3724,1 52305U 22041AW  23022.80856627  .00000179  00000-0  29363-4 0  9999,2 52305  53.2138 185.2285 0001503  88.3214 271.7950 15.08839500 43349,6917.882,95.438,540.7869999999999,538.707,0.0
52305.0,STARLINK-3724,PAYLOAD,2023-01-23 03:21:16,15.08834117,0.000136,53.2146,183.7416,84.2953,275.8194,2.8256e-05,1.62e-06,0.0,0 STARLINK-3724,1 52305U 22041AW  23023.13977055  .00000162  00000-0  28256-4 0  9997,2 52305  53.2146 183.7416 0001360  84.2953 275.8194 15.08834117 43392,6917.898,95.438,540.7040000000001,538.823,0.0
